NORAD_CAT_ID,OBJECT_NAME,OBJECT_TYPE,EPOCH,MEAN_MOTION,ECCENTRICITY,INCLINATION,RA_OF_ASC_NODE,ARG_OF_PERICENTER,MEAN_ANOMALY,BSTAR,MEAN_MOTION_DOT,MEAN_MOTION_DDOT,TLE_LINE0,TLE_LINE1,TLE_LINE2,SEMIMAJOR_AXIS,PERIOD,APOGEE,PERIGEE,DECAYED
49176.0,STARLINK-3069,PAYLOAD,2022-07-11 13:02:20,14.96709519,0.0003115,69.997,25.3231,267.0797,93.0004,4.5624e-05,4.31e-06,0.0,0 STARLINK-3069,1 49176U 21082AY  22192.54329836  .00000431  00000-0  45624-4 0  9999,2 49176  69.9970  25.3231 0003115 267.0797  93.0004 14.96709519 46684,6955.209,96.211,579.24,574.9069999999998,0.0
49176.0,STARLINK-3069,PAYLOAD,2022-07-11 21:03:32,14.96709056,0.0003067,69.9971,24.4826,267.1792,92.9015,0.00012584,1.349e-05,0.0,0 STARLINK-3069,1 49176U 21082AY  22192.87745795  .00001349  00000-0  12584-3 0  9998,2 49176  69.9971  24.4826 0003067 267.1792  92.9015 14.96709056 46739,6955.21,96.211,579.2080000000002,574.942,0.0
49176.0,STARLINK-3069,PAYLOAD,2022-07-12 13:05:54,14.96717955,0.0003084,69.9972,22.8016,267.1536,92.9269,0.00013495,1.453e-05,0.0,0 STARLINK-3069,1 49176U 21082AY  22193.54577358  .00001453  00000-0  13495-3 0  9999,2 49176  69.9972  22.8016 0003084 267.1536  92.9269 14.96717955 46837,6955.182,96.211,579.192,574.903,0.0
49176.0,STARLINK-3069,PAYLOAD,2022-07-12 21:07:05,14.96721606,0.0003061,69.9973,21.961,267.0968,92.984,0.00016962,1.851e-05,0.0,0 STARLINK-3069,1 49176U 21082AY  22193.87992981  .00001851  00000-0  16962-3 0  9992,2 49176  69.9973  21.9610 0003061 267.0968  92.9840 14.96721606 46889,6955.170999999999,96.21,579.165,574.9069999999998,0.0
49176.0,STARLINK-3069,PAYLOAD,2022-07-13 11:33:14,14.96722245,0.000303,69.9974,20.448,266.9604,93.1207,0.00012188,1.304e-05,0.0,0 STARLINK-3069,1 49176U 21082AY  22194.48141600  .00001304  00000-0  12188-3 0  9993,2 49176  69.9974  20.4480 0003030 266.9604  93.1207 14.96722245 46970,6955.169,96.21,579.1419999999998,574.927,0.0
49176.0,STARLINK-3069,PAYLOAD,2022-07-13 19:34:26,14.96715717,0.0003087,69.9974,19.6075,266.9427,93.1378,4.4377e-06,-4.1e-07,0.0,0 STARLINK-3069,1 49176U 21082AY  22194.81558196 -.00000041  00000-0  44377-5 0  9997,2 49176  69.9974  19.6075 0003087 266.9427  93.1378 14.96715717 47027,6955.189,96.211,579.201,574.9069999999998,0.0
49176.0,STARLINK-3069,PAYLOAD,2022-07-14 11:36:49,14.96712908,0.0003076,69.9982,17.9281,266.8988,93.1819,-3.0021e-05,-4.35e-06,0.0,0 STARLINK-3069,1 49176U 21082AY  22195.48390287 -.00000435  00000-0 -30021-4 0  9994,2 49176  69.9982  17.9281 0003076 266.8988  93.1819 14.96712908 47125,6955.198,96.211,579.203,574.924,0.0
49176.0,STARLINK-3069,PAYLOAD,2022-07-14 19:38:01,14.96707178,0.0002785,69.9982,17.0866,263.0032,97.0809,-0.00016659,-1.997e-05,0.0,0 STARLINK-3069,1 49176U 21082AY  22195.81807105 -.00001997  00000-0 -16659-3 0  9997,2 49176  69.9982  17.0866 0002785 263.0032  97.0809 14.96707178 47170,6955.215999999999,96.211,579.018,575.144,0.0
49176.0,STARLINK-3069,PAYLOAD,2022-07-15 11:40:24,14.96684567,0.0003318,69.9978,15.4054,257.7719,102.3068,0.00041607,4.67e-05,0.0,0 STARLINK-3069,1 49176U 21082AY  22196.48639498  .00004670  00000-0  41607-3 0  9999,2 49176  69.9978  15.4054 0003318 257.7719 102.3068 14.96684567 47275,6955.286,96.213,579.4590000000002,574.8430000000002,0.0
49176.0,STARLINK-3069,PAYLOAD,2022-07-15 21:17:49,14.96706802,0.0002969,69.9978,14.3967,265.6279,94.454,3.6961e-06,-4.9e-07,0.0,0 STARLINK-3069,1 49176U 21082AY  22196.88738300 -.00000049  00000-0  36961-5 0  9991,2 49176  69.9978  14.3967 0002969 265.6279  94.4540 14.96706802 47336,6955.217,96.211,579.1469999999998,575.0169999999998,0.0
49176.0,STARLINK-3069,PAYLOAD,2022-07-16 13:20:12,14.96708196,0.0003109,69.9974,12.7147,265.291,94.7893,0.00012653,1.357e-05,0.0,0 STARLINK-3069,1 49176U 21082AY  22197.55570123  .00001357  00000-0  12653-3 0  9995,2 49176  69.9974  12.7147 0003109 265.2910  94.7893 14.96708196 47432,6955.2130000000025,96.211,579.24,574.915,0.0
49176.0,STARLINK-3069,PAYLOAD,2022-07-16 19:45:09,14.96710751,0.0003078,69.9975,12.0425,265.4737,94.6069,0.00017859,1.953e-05,0.0,0 STARLINK-3069,1 49176U 21082AY  22197.82302778  .00001953  00000-0  17859-3 0  9999,2 49176  69.9975  12.0425 0003078 265.4737  94.6069 14.96710751 47477,6955.205,96.211,579.211,574.929,0.0
49176.0,STARLINK-3069,PAYLOAD,2022-07-16 21:21:23,14.96711312,0.0003076,69.9975,11.8744,265.4928,94.5878,0.0001824,1.996e-05,0.0,0 STARLINK-3069,1 49176U 21082AY  22197.88985964  .00001996  00000-0  18240-3 0  9991,2 49176  69.9975  11.8744 0003076 265.4928  94.5878 14.96711312 47480,6955.203,96.211,579.207,574.929,0.0
49176.0,STARLINK-3069,PAYLOAD,2022-07-17 11:47:31,14.96719845,0.0003099,69.9974,10.3613,265.415,94.6654,0.00019929,2.19e-05,0.0,0 STARLINK-3069,1 49176U 21082AY  22198.49134254  .00002190  00000-0  19929-3 0  9999,2 49176  69.9974  10.3613 0003099 265.4150  94.6654 14.96719845 47572,6955.177,96.21,579.197,574.886,0.0
49176.0,STARLINK-3069,PAYLOAD,2022-07-17 18:12:28,14.96722994,0.0003108,69.9974,9.6889,265.3866,94.6937,0.00020117,2.212e-05,0.0,0 STARLINK-3069,1 49176U 21082AY  22198.75866816  .00002212  00000-0  20117-3 0  9990,2 49176  69.9974   9.6889 0003108 265.3866  94.6937 14.96722994 47610,6955.167,96.21,579.194,574.87,0.0
49176.0,STARLINK-3069,PAYLOAD,2022-07-18 11:51:06,14.96715689,0.0003085,69.9975,7.8398,265.4599,94.6207,2.704e-05,2.18e-06,0.0,0 STARLINK-3069,1 49176U 21082AY  22199.49382782  .00000218  00000-0  27040-4 0  9994,2 49176  69.9975   7.8398 0003085 265.4599  94.6207 14.96715689 47729,6955.19,96.211,579.2,574.909,0.0
49176.0,STARLINK-3069,PAYLOAD,2022-07-18 21:28:32,14.96720146,0.0003081,69.9978,6.8311,265.6899,94.3907,5.4759e-05,5.35e-06,0.0,0 STARLINK-3069,1 49176U 21082AY  22199.89481563  .00000535  00000-0  54759-4 0  9994,2 49176  69.9978   6.8311 0003081 265.6899  94.3907 14.96720146 47781,6955.176,96.21,579.184,574.898,0.0
49176.0,STARLINK-3069,PAYLOAD,2022-07-19 03:53:28,14.96723941,0.0003051,69.998,6.1587,265.999,94.0819,7.0663e-05,7.17e-06,0.0,0 STARLINK-3069,1 49176U 21082AY  22200.16213992  .00000717  00000-0  70663-4 0  9990,2 49176  69.9980   6.1587 0003051 265.9990  94.0819 14.96723941 47824,6955.1640000000025,96.21,579.151,574.9069999999998,0.0
49176.0,STARLINK-3069,PAYLOAD,2022-07-19 19:55:51,14.96718347,0.0003498999999999,69.9972,4.4771,266.071,94.0048,-6.6232e-05,-8.5e-06,0.0,0 STARLINK-3069,1 49176U 21082AY  22200.83046193 -.00000850  00000-0 -66232-4 0  9998,2 49176  69.9972   4.4771 0003499 266.0710  94.0048 14.96718347 47928,6955.181,96.21,579.48,574.613,0.0
49176.0,STARLINK-3069,PAYLOAD,2022-07-20 13:34:28,14.96719253,0.0003567,69.9972,2.628,268.6337,91.4413,4.3389e-05,4.05e-06,0.0,0 STARLINK-3069,1 49176U 21082AY  22201.56561074  .00000405  00000-0  43389-4 0  9991,2 49176  69.9972   2.6280 0003567 268.6337  91.4413 14.96719253 48039,6955.178000000001,96.21,579.524,574.563,0.0
49176.0,STARLINK-3069,PAYLOAD,2022-07-20 19:59:25,14.96724081,0.0003634,69.9971,1.9551,267.4144,92.6598,8.6725e-05,9.01e-06,0.0,0 STARLINK-3069,1 49176U 21082AY  22201.83293336  .00000901  00000-0  86725-4 0  9996,2 49176  69.9971   1.9551 0003634 267.4144  92.6598 14.96724081 48075,6955.1640000000025,96.21,579.556,574.501,0.0
49176.0,STARLINK-3069,PAYLOAD,2022-07-21 10:25:34,14.96713227,0.0003551,69.9961,0.441,265.23900000000003,94.8362,-1.0052e-05,-2.07e-06,0.0,0 STARLINK-3069,1 49176U 21082AY  22202.43442773 -.00000207  00000-0 -10052-4 0  9995,2 49176  69.9961   0.4410 0003551 265.2390  94.8362 14.96713227 48162,6955.196999999999,96.211,579.5319999999998,574.592,0.0
49176.0,STARLINK-3069,PAYLOAD,2022-07-21 12:01:48,14.96719227,0.0003293,69.998,0.2754,263.9374,96.1409,-2.0409e-05,-3.25e-06,0.0,0 STARLINK-3069,1 49176U 21082AY  22202.50125764 -.00000325  00000-0 -20409-4 0  9999,2 49176  69.9980   0.2754 0003293 263.9374  96.1409 14.96719227 48176,6955.179,96.21,579.3340000000002,574.753,0.0
49176.0,STARLINK-3069,PAYLOAD,2022-07-21 20:03:00,14.96707742,0.0003376999999999,69.9976,359.4346,264.0211,96.0562,3.868e-05,3.51e-06,0.0,0 STARLINK-3069,1 49176U 21082AY  22202.83542340  .00000351  00000-0  38680-4 0  9995,2 49176  69.9976 359.4346 0003377 264.0211  96.0562 14.96707742 48226,6955.214,96.211,579.428,574.73,0.0
49176.0,STARLINK-3069,PAYLOAD,2022-07-22 04:04:11,14.96715728,0.0003294,69.9979,358.5938,268.5457,91.5324,-4.817e-05,-6.43e-06,0.0,0 STARLINK-3069,1 49176U 21082AY  22203.16958158 -.00000643  00000-0 -48170-4 0  9991,2 49176  69.9979 358.5938 0003294 268.5457  91.5324 14.96715728 48279,6955.189,96.211,579.345,574.763,0.0
49176.0,STARLINK-3069,PAYLOAD,2022-07-22 10:29:08,14.96716203,0.0003438999999999,69.9975,357.9211,265.1065,94.9701,1.1e-05,3.4e-07,0.0,0 STARLINK-3069,1 49176U 21082AY  22203.43690855  .00000034  00000-0  11000-4 0  9992,2 49176  69.9975 357.9211 0003439 265.1065  94.9701 14.96716203 48311,6955.188,96.211,579.445,574.661,0.0
49176.0,STARLINK-3069,PAYLOAD,2022-07-23 13:45:11,14.96719777,0.000336,69.9978,355.0636,264.0951,95.9824,0.00016952,1.849e-05,0.0,0 STARLINK-3069,1 49176U 21082AY  22204.57304429  .00001849  00000-0  16952-3 0  9992,2 49176  69.9978 355.0636 0003360 264.0951  95.9824 14.96719777 48483,6955.177,96.21,579.379,574.705,0.0
49176.0,STARLINK-3069,PAYLOAD,2022-07-23 15:21:25,14.96720383,0.0003357,69.9978,354.8955,264.0943,95.9833,0.00017493,1.911e-05,0.0,0 STARLINK-3069,1 49176U 21082AY  22204.63987577  .00001911  00000-0  17493-3 0  9991,2 49176  69.9978 354.8955 0003357 264.0943  95.9833 14.96720383 48497,6955.175,96.21,579.375,574.705,0.0
49176.0,STARLINK-3069,PAYLOAD,2022-07-23 20:10:08,14.96710895,0.0003387,69.9976,354.3911,264.2466,95.8306,8.182e-05,8.45e-06,0.0,0 STARLINK-3069,1 49176U 21082AY  22204.84037995  .00000845  00000-0  81820-4 0  9995,2 49176  69.9976 354.3911 0003387 264.2466  95.8306 14.96710895 48522,6955.204000000002,96.211,579.425,574.714,0.0
